{
    "links": {
        "self": "http://www.neowsapp.com/rest/v1/neo/3879254?api_key=iIulBulltgU6a56xZRHN4H3l9WmuAYTsLGpBGhQ2"
    },
    "id": "3879254",
    "neo_reference_id": "3879254",
    "name": "(2019 UF1)",
    "designation": "2019 UF1",
    "nasa_jpl_url": "http://ssd.jpl.nasa.gov/sbdb.cgi?sstr=3879254",
    "absolute_magnitude_h": 25.8,
    "estimated_diameter": {
        "kilometers": {
            "estimated_diameter_min": 0.0183888672,
            "estimated_diameter_max": 0.0411187571
        },
        "meters": {
            "estimated_diameter_min": 18.388867207,
            "estimated_diameter_max": 41.1187571041
        },
        "miles": {
            "estimated_diameter_min": 0.0114263088,
            "estimated_diameter_max": 0.0255500032
        },
        "feet": {
            "estimated_diameter_min": 60.3309310875,
            "estimated_diameter_max": 134.9040630575
        }
    },
    "is_potentially_hazardous_asteroid": false,
    "close_approach_data": [
        {
            "close_approach_date": "2019-10-22",
            "close_approach_date_full": "2019-Oct-22 20:44",
            "epoch_date_close_approach": 1571777040000,
            "relative_velocity": {
                "kilometers_per_second": "16.8003179936",
                "kilometers_per_hour": "60481.1447768077",
                "miles_per_hour": "37580.6313197892"
            },
            "miss_distance": {
                "astronomical": "0.0166085365",
                "lunar": "6.4607206985",
                "kilometers": "2484601.684217255",
                "miles": "1543859.896837919"
            },
            "orbiting_body": "Earth"
        }
    ],
    "orbital_data": {
        "orbit_id": "1",
        "orbit_determination_date": "2019-10-20 20:12:09",
        "first_observation_date": "2019-10-19",
        "last_observation_date": "2019-10-21",
        "data_arc_in_days": 2,
        "observations_used": 35,
        "orbit_uncertainty": "8",
        "minimum_orbit_intersection": ".0156177",
        "jupiter_tisserand_invariant": "2.987",
        "epoch_osculation": "2458775.5",
        "eccentricity": ".7112401683718952",
        "semi_major_axis": "2.613862226214791",
        "inclination": "1.46146699660615",
        "ascending_node_longitude": "246.228956109712",
        "orbital_period": "1543.556268770319",
        "perihelion_distance": ".7547784163408462",
        "perihelion_argument": "207.3096588173549",
        "aphelion_distance": "4.472946036088735",
        "perihelion_time": "2458819.521198111725",
        "mean_anomaly": "349.7330394486713",
        "mean_motion": ".2332276492173464",
        "equinox": "J2000",
        "orbit_class": {
            "orbit_class_type": "APO",
            "orbit_class_description": "Near-Earth asteroid orbits which cross the Earth’s orbit similar to that of 1862 Apollo",
            "orbit_class_range": "a (semi-major axis) > 1.0 AU; q (perihelion) < 1.017 AU"
        }
    },
    "is_sentry_object": false
}